{
    "links": {
        "self": "http://www.neowsapp.com/rest/v1/neo/3546525?api_key=iIulBulltgU6a56xZRHN4H3l9WmuAYTsLGpBGhQ2"
    },
    "id": "3546525",
    "neo_reference_id": "3546525",
    "name": "(2010 RM122)",
    "designation": "2010 RM122",
    "nasa_jpl_url": "http://ssd.jpl.nasa.gov/sbdb.cgi?sstr=3546525",
    "absolute_magnitude_h": 25.6,
    "estimated_diameter": {
        "kilometers": {
            "estimated_diameter_min": 0.0201629919,
            "estimated_diameter_max": 0.0450858206
        },
        "meters": {
            "estimated_diameter_min": 20.1629919443,
            "estimated_diameter_max": 45.0858206172
        },
        "miles": {
            "estimated_diameter_min": 0.0125286985,
            "estimated_diameter_max": 0.0280150214
        },
        "feet": {
            "estimated_diameter_min": 66.1515504905,
            "estimated_diameter_max": 147.9193637137
        }
    },
    "is_potentially_hazardous_asteroid": false,
    "close_approach_data": [
        {
            "close_approach_date": "2007-09-07",
            "close_approach_date_full": "2007-Sep-07 15:12",
            "epoch_date_close_approach": 1189177920000,
            "relative_velocity": {
                "kilometers_per_second": "9.7992003963",
                "kilometers_per_hour": "35277.1214265912",
                "miles_per_hour": "21919.8313664283"
            },
            "miss_distance": {
                "astronomical": "0.1838850917",
                "lunar": "71.5313006713",
                "kilometers": "27508818.043074679",
                "miles": "17093186.9103574102"
            },
            "orbiting_body": "Earth"
        },
        {
            "close_approach_date": "2010-08-25",
            "close_approach_date_full": "2010-Aug-25 07:08",
            "epoch_date_close_approach": 1282720080000,
            "relative_velocity": {
                "kilometers_per_second": "5.5197557694",
                "kilometers_per_hour": "19871.1207697231",
                "miles_per_hour": "12347.1416804983"
            },
            "miss_distance": {
                "astronomical": "0.0435430861",
                "lunar": "16.9382604929",
                "kilometers": "6513952.933786607",
                "miles": "4047582.6641528966"
            },
            "orbiting_body": "Earth"
        }
    ],
    "orbital_data": {
        "orbit_id": "7",
        "orbit_determination_date": "2017-04-06 08:56:42",
        "first_observation_date": "2010-09-14",
        "last_observation_date": "2010-09-15",
        "data_arc_in_days": 1,
        "observations_used": 21,
        "orbit_uncertainty": "8",
        "minimum_orbit_intersection": ".0433634",
        "jupiter_tisserand_invariant": "4.963",
        "epoch_osculation": "2455454.5",
        "eccentricity": ".2170204460109947",
        "semi_major_axis": "1.302990702117395",
        "inclination": "7.185848854367667",
        "ascending_node_longitude": "344.1133340505975",
        "orbital_period": "543.2633431740486",
        "perihelion_distance": "1.020215078795699",
        "perihelion_argument": "318.070609484364",
        "aphelion_distance": "1.585766325439091",
        "perihelion_time": "2455405.463609815344",
        "mean_anomaly": "32.49455478320488",
        "mean_motion": ".6626620487527806",
        "equinox": "J2000",
        "orbit_class": {
            "orbit_class_type": "AMO",
            "orbit_class_description": "Near-Earth asteroid orbits similar to that of 1221 Amor",
            "orbit_class_range": "1.017 AU < q (perihelion) < 1.3 AU"
        }
    },
    "is_sentry_object": false
}